$$SOE
2460721.500000000, A.D. 2025-Feb-15 00:00:00.0000, -2.144300056277858E+07, 4.124730910778948E+08, 3.598050291287950E+07,
2460728.500000000, A.D. 2025-Feb-22 00:00:00.0000, -3.171481849577528E+07, 4.150078087624853E+08, 3.618988680214998E+07,
2460735.500000000, A.D. 2025-Mar-01 00:00:00.0000, -4.196542996583875E+07, 4.172664864368563E+08, 3.637514098789331E+07,
2460742.500000000, A.D. 2025-Mar-08 00:00:00.0000, -5.218862852009716E+07, 4.192538238744767E+08, 3.653668265366820E+07,
2460749.500000000, A.D. 2025-Mar-15 00:00:00.0000, -6.237849744830566E+07, 4.209745072335238E+08, 3.667492744700304E+07,
2460756.500000000, A.D. 2025-Mar-22 00:00:00.0000, -7.252939748388827E+07, 4.224332021126682E+08, 3.679028908982772E+07,
2460763.500000000, A.D. 2025-Mar-29 00:00:00.0000, -8.263595371917863E+07, 4.236345453170421E+08, 3.688317876345468E+07,
2460770.500000000, A.D. 2025-Apr-05 00:00:00.0000, -9.269304141136552E+07, 4.245831383804919E+08, 3.695400448658720E+07,
2460777.500000000, A.D. 2025-Apr-12 00:00:00.0000, -1.026957725987057E+08, 4.252835428630947E+08, 3.700317066364890E+07,
2460784.500000000, A.D. 2025-Apr-19 00:00:00.0000, -1.126394837047212E+08, 4.257402764624584E+08, 3.703107774129912E+07,
2460791.500000000, A.D. 2025-Apr-26 00:00:00.0000, -1.225197238472109E+08, 4.259578096633103E+08, 3.703812192514095E+07,
2460798.500000000, A.D. 2025-May-03 00:00:00.0000, -1.323322437245350E+08, 4.259405628793494E+08, 3.702469494193655E+07,
2460805.500000000, A.D. 2025-May-10 00:00:00.0000, -1.420729850347772E+08, 4.256929040370083E+08, 3.699118384015560E+07,
2460812.500000000, A.D. 2025-May-17 00:00:00.0000, -1.517380703738395E+08, 4.252191465065682E+08, 3.693797081738386E+07,
2460819.500000000, A.D. 2025-May-24 00:00:00.0000, -1.613237934204118E+08, 4.245235472775858E+08, 3.686543304991663E+07,
2460826.500000000, A.D. 2025-May-31 00:00:00.0000, -1.708266089715280E+08, 4.236103056456735E+08, 3.677394250781387E+07,
2460833.500000000, A.D. 2025-Jun-07 00:00:00.0000, -1.802431232112626E+08, 4.224835635765276E+08, 3.666386588728654E+07,
2460840.500000000, A.D. 2025-Jun-14 00:00:00.0000, -1.895700865576474E+08, 4.211474070462441E+08, 3.653556481973052E+07,
2460847.500000000, A.D. 2025-Jun-21 00:00:00.0000, -1.988043878498572E+08, 4.196058650530373E+08, 3.638939597548395E+07,
2460854.500000000, A.D. 2025-Jun-28 00:00:00.0000, -2.079430467293238E+08, 4.178629080334676E+08, 3.622571091710952E+07,
2460861.500000000, A.D. 2025-Jul-05 00:00:00.0000, -2.169832057148788E+08, 4.159224478152938E+08, 3.604485601552916E+07,
2460868.500000000, A.D. 2025-Jul-12 00:00:00.0000, -2.259221231443160E+08, 4.137883382796916E+08, 3.584717247045574E+07,
2460875.500000000, A.D. 2025-Jul-19 00:00:00.0000, -2.347571667745170E+08, 4.114643761364043E+08, 3.563299636891243E+07,
2460882.500000000, A.D. 2025-Jul-26 00:00:00.0000, -2.434858078130879E+08, 4.089543017360218E+08, 3.540265875638765E+07,
2460889.500000000, A.D. 2025-Aug-02 00:00:00.0000, -2.521056152997894E+08, 4.062617999241123E+08, 3.515648571504101E+07,
2460896.500000000, A.D. 2025-Aug-09 00:00:00.0000, -2.606142507986268E+08, 4.033905009076315E+08, 3.489479844445109E+07,
2460903.500000000, A.D. 2025-Aug-16 00:00:00.0000, -2.690094633085687E+08, 4.003439810571209E+08, 3.461791333169049E+07,
2460910.500000000, A.D. 2025-Aug-23 00:00:00.0000, -2.772890840858604E+08, 3.971257636493391E+08, 3.432614198440915E+07,
2460917.500000000, A.D. 2025-Aug-30 00:00:00.0000, -2.854510210355197E+08, 3.937393202538831E+08, 3.401979125443834E+07,
2460924.500000000, A.D. 2025-Sep-06 00:00:00.0000, -2.934932540778341E+08, 3.901880737555692E+08, 3.369916346321300E+07,
2460931.500000000, A.D. 2025-Sep-13 00:00:00.0000, -3.014138331478471E+08, 3.864754005231529E+08, 3.336455677886462E+07,
2460938.500000000, A.D. 2025-Sep-20 00:00:00.0000, -3.092108755403752E+08, 3.826046300720117E+08, 3.301626530984098E+07,
2460945.500000000, A.D. 2025-Sep-27 00:00:00.0000, -3.168825615301208E+08, 3.785790453241568E+08, 3.265457907180519E+07,
2460952.500000000, A.D. 2025-Oct-04 00:00:00.0000, -3.244271302731615E+08, 3.744018839995506E+08, 3.227978405645888E+07,
2460959.500000000, A.D. 2025-Oct-11 00:00:00.0000, -3.318428763521625E+08, 3.700763401905828E+08, 3.189216235903056E+07,
2460966.500000000, A.D. 2025-Oct-18 00:00:00.0000, -3.391281466713547E+08, 3.656055658395301E+08, 3.149199231557211E+07,
2460973.500000000, A.D. 2025-Oct-25 00:00:00.0000, -3.462813375533315E+08, 3.609926721253085E+08, 3.107954863786601E+07,
2460980.500000000, A.D. 2025-Nov-01 00:00:00.0000, -3.533008919909835E+08, 3.562407307721353E+08, 3.065510254335360E+07,
2460987.500000000, A.D. 2025-Nov-08 00:00:00.0000, -3.601852970129589E+08, 3.513527752472624E+08, 3.021892187407705E+07,
2460994.500000000, A.D. 2025-Nov-15 00:00:00.0000, -3.669330810074158E+08, 3.463318017883704E+08, 2.977127118593585E+07,
2461001.500000000, A.D. 2025-Nov-22 00:00:00.0000, -3.735428105938245E+08, 3.411807704797273E+08, 2.931241178890295E+07,
2461008.500000000, A.D. 2025-Nov-29 00:00:00.0000, -3.800130871889588E+08, 3.359026075108594E+08, 2.884260184459542E+07,
2461015.500000000, A.D. 2025-Dec-06 00:00:00.0000, -3.863425455384967E+08, 3.305002084810912E+08, 2.836209671861264E+07,
2461022.500000000, A.D. 2025-Dec-13 00:00:00.0000, -3.925298537740610E+08, 3.249764393797173E+08, 2.787114927212986E+07,
2461029.500000000, A.D. 2025-Dec-20 00:00:00.0000, -3.985737114949443E+08, 3.193341362633760E+08, 2.737000985573262E+07,
2461036.500000000, A.D. 2025-Dec-27 00:00:00.0000, -4.044728469431628E+08, 3.135761062201853E+08, 2.685892631562573E+07,
2461043.500000000, A.D. 2026-Jan-03 00:00:00.0000, -4.102260147272499E+08, 3.077051290056375E+08, 2.633814409570923E+07,
2461050.500000000, A.D. 2026-Jan-10 00:00:00.0000, -4.158319939803750E+08, 3.017239586724953E+08, 2.580790636999072E+07,
2461057.500000000, A.D. 2026-Jan-17 00:00:00.0000, -4.212895867154272E+08, 2.956353251039714E+08, 2.526845417658505E+07,
2461064.500000000, A.D. 2026-Jan-24 00:00:00.0000, -4.265976162946925E+08, 2.894419354737993E+08, 2.472002654810697E+07,
2461071.500000000, A.D. 2026-Jan-31 00:00:00.0000, -4.317549259865303E+08, 2.831464756269607E+08, 2.416286063581324E+07,
2461078.500000000, A.D. 2026-Feb-07 00:00:00.0000, -4.367603775435200E+08, 2.767516113250211E+08, 2.359719181728616E+07,
2461085.500000000, A.D. 2026-Feb-14 00:00:00.0000, -4.416128495450916E+08, 2.702599893420029E+08, 2.302325376330945E+07,
2461092.500000000, A.D. 2026-Feb-21 00:00:00.0000, -4.463112351133423E+08, 2.636742389887585E+08, 2.244127847566222E+07,
2461099.500000000, A.D. 2026-Feb-28 00:00:00.0000, -4.508544400839057E+08, 2.569969752199754E+08, 2.185149648970754E+07,
2461106.500000000, A.D. 2026-Mar-07 00:00:00.0000, -4.552413836885839E+08, 2.502308013750013E+08, 2.125413727135263E+07,
2461113.500000000, A.D. 2026-Mar-14 00:00:00.0000, -4.594709989714156E+08, 2.433783092213926E+08, 2.064942936334684E+07,
2461120.500000000, A.D. 2026-Mar-21 00:00:00.0000, -4.635422311517827E+08, 2.364420791993781E+08, 2.003760035448557E+07,
2461127.500000000, A.D. 2026-Mar-28 00:00:00.0000, -4.674540359425096E+08, 2.294246818959915E+08, 1.941887694034339E+07,
2461134.500000000, A.D. 2026-Apr-04 00:00:00.0000, -4.712053784261422E+08, 2.223286797848594E+08, 1.879348505227178E+07,
2461141.500000000, A.D. 2026-Apr-11 00:00:00.0000, -4.747952322141352E+08, 2.151566288736750E+08, 1.816165000044125E+07,
2461148.500000000, A.D. 2026-Apr-18 00:00:00.0000, -4.782225787278699E+08, 2.079110802542760E+08, 1.752359661610226E+07,
2461155.500000000, A.D. 2026-Apr-25 00:00:00.0000, -4.814864065539344E+08, 2.005945815714798E+08, 1.687954939038385E+07,
2461162.500000000, A.D. 2026-May-02 00:00:00.0000, -4.845857108413951E+08, 1.932096783825386E+08, 1.622973260469460E+07,
2461169.500000000, A.D. 2026-May-09 00:00:00.0000, -4.875194926150025E+08, 1.857589153426062E+08, 1.557437043616054E+07,
2461176.500000000, A.D. 2026-May-16 00:00:00.0000, -4.902867576249462E+08, 1.782448373563136E+08, 1.491368701497795E+07,
2461183.500000000, A.D. 2026-May-23 00:00:00.0000, -4.928865146798683E+08, 1.706699917195829E+08, 1.424790651266149E+07,
2461190.500000000, A.D. 2026-May-30 00:00:00.0000, -4.953177755405411E+08, 1.630369315729474E+08, 1.357725347803248E+07,
2461197.500000000, A.D. 2026-Jun-06 00:00:00.0000, -4.975795566909344E+08, 1.553482173950660E+08, 1.290195318255357E+07,
2461204.500000000, A.D. 2026-Jun-13 00:00:00.0000, -4.996708793187215E+08, 1.476064167375676E+08, 1.222223165510438E+07,
2461211.500000000, A.D. 2026-Jun-20 00:00:00.0000, -5.015907680038725E+08, 1.398141051277288E+08, 1.153831569132964E+07,
2461218.500000000, A.D. 2026-Jun-27 00:00:00.0000, -5.033382498140525E+08, 1.319738677991702E+08, 1.085043296547724E+07,
2461225.500000000, A.D. 2026-Jul-04 00:00:00.0000, -5.049123538089285E+08, 1.240883014772619E+08, 1.015881218127766E+07,
2461232.500000000, A.D. 2026-Jul-11 00:00:00.0000, -5.063121107011825E+08, 1.161600160899570E+08, 9.463683227687292E+06,
2461239.500000000, A.D. 2026-Jul-18 00:00:00.0000, -5.075365525826787E+08, 1.081916364326898E+08, 8.765277333004221E+06,
2461246.500000000, A.D. 2026-Jul-25 00:00:00.0000, -5.085847126921355E+08, 1.001858037929144E+08, 8.063827215281099E+06,
2461253.500000000, A.D. 2026-Aug-01 00:00:00.0000, -5.094556251768472E+08, 9.214517748886451E+07, 7.359567220682465E+06,
2461260.500000000, A.D. 2026-Aug-08 00:00:00.0000, -5.101483246342330E+08, 8.407243628921910E+07, 6.652733427200664E+06,
2461267.500000000, A.D. 2026-Aug-15 00:00:00.0000, -5.106618450189180E+08, 7.597028016652445E+07, 5.943563712592095E+06,
2461274.500000000, A.D. 2026-Aug-22 00:00:00.0000, -5.109952186774226E+08, 6.784143360791516E+07, 5.232297956304375E+06,
2461281.500000000, A.D. 2026-Aug-29 00:00:00.0000, -5.111474778016797E+08, 5.968864911259417E+07, 4.519178473303098E+06,
2461288.500000000, A.D. 2026-Sep-05 00:00:00.0000, -5.111176561707852E+08, 5.151470801106062E+07, 3.804450249893740E+06,
$$EOE